#aV2010  7 11  0  0   .00000000      96 DD+AD WGS84 FIT  NGA
## 1592       .00000000   900.00000000 55388  .0000000000000
+   31     1  2  3  4  5  6  7  8  9 10 11 12 13 14 15 16 17
+         18 19 20 21 22 23 24 26 27 28 29 30 31 32  0  0  0
+          0  0  0  0  0  0  0  0  0  0  0  0  0  0  0  0  0
+          0  0  0  0  0  0  0  0  0  0  0  0  0  0  0  0  0
+          0  0  0  0  0  0  0  0  0  0  0  0  0  0  0  0  0
++         0  0  0  0  0  0  0  0  0  0  0  0  0  0  0  0  0
++         0  0  0  0  0  0  0  0  0  0  0  0  0  0  0  0  0
++         0  0  0  0  0  0  0  0  0  0  0  0  0  0  0  0  0
++         0  0  0  0  0  0  0  0  0  0  0  0  0  0  0  0  0
++         0  0  0  0  0  0  0  0  0  0  0  0  0  0  0  0  0
%c cc cc ccc ccc cccc cccc cccc cccc ccccc ccccc ccccc ccccc
%c cc cc ccc ccc cccc cccc cccc cccc ccccc ccccc ccccc ccccc
%f  0.0000000  0.000000000  0.00000000000  0.000000000000000
%f  0.0000000  0.000000000  0.00000000000  0.000000000000000
%i    0    0    0    0      0      0      0      0         0
%i    0    0    0    0      0      0      0      0         0
/*      NGA, ST. LOUIS,MO.                                  
/*   EPHEMERIS COMPUTED FROM  3 DAYS OF DATA                
/* CCCCCCCCCCCCCCCCCCCCCCCCCCCCCCCCCCCCCCCCCCCCCCCCCCCCCCCCC
/* CCCCCCCCCCCCCCCCCCCCCCCCCCCCCCCCCCCCCCCCCCCCCCCCCCCCCCCCC
*  2010  7 11 22 15   .00000000                                                 
P  1  24996.766098   4901.289248  -7866.869589   -140.093800                    
V  1  -9742.363127   2578.736678 -29653.434645      -.040753                    
P  2 -17866.104301   3740.636147 -19145.799079    272.051881                    
V  2   9940.440254 -22481.948742 -14136.915445       .031006                    
P  3  18742.840937   1445.099958  18515.356132    580.279392                    
V  3  13578.605770  20217.916232 -14679.895868       .051015                    
P  4 -12408.721581  -9968.882992 -21408.909697    122.879664                    
V  4  13526.597237 -23256.778174   3371.555160       .080953                    
P  5 -26304.540200   2649.607604   2988.957719    -13.413476                    
V  5  -3861.706547  -2733.779299 -31334.680244      -.030434                    
P  6  19548.264191   6561.148279  17003.369320    576.379004                    
V  6  10158.256535  18807.811335 -18975.006589      -.140059                    
P  7   3859.873993 -23391.822780  11776.183941     -1.674797                    
V  7   9263.751934 -12029.959774 -27075.706439      -.001559                    
P  8  -5164.345157 -16204.929997  20226.702613      6.075856                    
V  8  14940.952791 -21052.234142 -13560.487276       .000624                    
P  9 -15270.203654  20696.566864   6007.558124     17.725022                    
V  9   1869.827036  -8423.308571  30988.159383       .022039                    
P 10 -24855.329408  -5871.990398  -8099.108431    -46.781218                    
V 10   9962.272311  -2486.864747 -29101.970801      -.008877                    
P 11  10067.086349 -23976.402260   4104.042523    -74.986276                    
V 11   3631.597865   6866.309708  29662.818195      -.025955                    
P 12 -15886.132211  12024.530357 -17444.777277    -94.646635                    
V 12 -22275.389192  -1440.218326  19397.030539       .040093                    
P 13  -2929.486093 -23412.611588 -12293.598411    301.872754                    
V 13   8298.951133  13003.703794 -27089.503284      -.006608                    
P 14  15653.111869  20637.516598  -6059.975435     66.754640                    
V 14   2078.986243   7771.728537  30981.769429       .041198                    
P 15 -12865.572573   8430.653364  21667.598600   -241.317854                    
V 15 -14661.611903 -23269.589650    465.961925       .062009                    
P 16  26596.365815   1592.814214  -1932.218104    -88.759064                    
V 16  -2495.259721   2163.553109 -31710.099672      -.036034                    
P 17 -15159.638245 -21648.816610  -3509.488874    161.359652                    
V 17     25.795940  -5263.478084  31195.841060       .019157                    
P 18   3807.664662  15729.237238  21378.823530     80.209066                    
V 18 -26547.717060    201.059931   4256.527377       .023592                    
P 19  12936.793954  -8239.454369  21697.676483    -48.945355                    
V 19  12575.162229  24472.668762   2110.766134      -.029118                    
P 20  14007.218638 -13879.222416 -17902.458006     53.481209                    
V 20  22637.338593    837.024715  17239.126921      -.004690                    
P 21    -43.902677  22068.647264  14661.457843    -73.278521                    
V 21 -11732.785976  14444.492948 -22938.126778      -.026395                    
P 22  16442.159157  12591.404786  16851.585858    167.756628                    
V 22 -21142.383594   1965.519802  19255.811441      -.007749                    
P 23   4248.470257 -18208.000564 -18754.123831    363.385599                    
V 23  13427.065045  19788.877318 -16510.600209      -.015875                    
P 24  14063.679816   6717.797240  21591.574913    303.594320                    
V 24 -14145.410331  23300.276708   2214.699678       .032158                    
P 26 -14102.714331   3652.941244  21676.493296    -79.874968                    
V 26 -13078.956089 -25623.879727  -3689.995529      -.060668                    
P 27 -17000.146573  17132.403127  11555.437640    169.265026                    
V 27   4295.053070 -13121.622293  27568.779154       .035433                    
P 28 -13869.290414 -13231.665963  18985.342075    -10.886719                    
V 28  23000.685820   -600.118016  16532.993508       .012023                    
P 29   2926.525619  23203.125991 -12540.275539    133.827792                    
V 29  -9839.324131 -12890.304081 -25916.895068       .026925                    
P 30  -3370.139396  15518.633314 -21688.930638    259.694098                    
V 30 -26591.915268   1175.083444   5115.257983       .033121                    
P 31  12968.552292   7062.420833 -21873.490374    -25.151747                    
V 31 -13814.825885  24604.971638    -73.802923       .025277                    
P 32  20824.428616  -8208.096092 -13688.878647    -35.753608                    
V 32  17873.796037   3791.786588  24663.368824      -.086463                    
EOF
